STARLINK-35453          
1 65878U 25223AA  25302.78726028 -.00022390  00000+0 -39617-3 0  9996
2 65878  53.1598 184.3414 0001428  93.2908 266.8265 15.49272334  4131
STARLINK-35418          
1 65879U 25223AB  25302.91523594  .00100868  00000+0  17958-2 0  9993
2 65879  53.1599 183.7188 0001217  96.4769 263.6379 15.49349180  4157
STARLINK-35445          
1 65880U 25223AC  25302.91592416  .00105396  00000+0  18759-2 0  9995
2 65880  53.1597 183.7220 0000842 109.8238 250.2862 15.49335411  4158
STARLINK-35464          
1 65881U 25223AD  25302.91489515  .00107403  00000+0  19111-2 0  9995
2 65881  53.1601 183.7150 0000943  94.9259 265.1858 15.49332571  4150
STARLINK-35270          
1 65882U 25224A   25302.91668981 -.00450560  00000+0 -84877-2 0  9991
2 65882  53.1594 261.0184 0001557 102.4340 158.2792 15.49576490  4819
STARLINK-35367          
1 65883U 25224B   25302.91668981 -.00460396  00000+0 -86815-2 0  9994
2 65883  53.1593 261.0108 0001662 101.7607 162.7861 15.49583678  4813
STARLINK-35384          
1 65884U 25224C   25302.91668981 -.00385484  00000+0 -72097-2 0  9996
2 65884  53.1592 261.0015 0001644 104.3168 164.0815 15.49542788  4812
STARLINK-35415          
1 65885U 25224D   25302.91668981 -.00459468  00000+0 -86632-2 0  9991
2 65885  53.1591 260.9938 0001717  98.4183 173.7945 15.49582782  4768
STARLINK-35413          
1 65886U 25224E   25302.91668981 -.00498240  00000+0 -94488-2 0  9991
2 65886  53.1592 260.9855 0002074  89.8441 186.2111 15.49557345  4767
STARLINK-35332          
1 65887U 25224F   25302.91668981 -.00501836  00000+0 -95200-2 0  9991
2 65887  53.1593 260.9815 0002209  90.5395 187.4327 15.49560441  4844
STARLINK-35362          
1 65888U 25224G   25302.91668981 -.00446656  00000+0 -84104-2 0  9991
2 65888  53.1594 261.0136 0001620 103.6136 159.0165 15.49574612  4816
STARLINK-35193          
1 65889U 25224H   25302.91668981 -.00478657  00000+0 -90619-2 0  9996
2 65889  53.1592 260.7443 0002089 126.2424 265.9966 15.49534785  4849
