CCSDS_OMM_VERS = 2.0
CREATION_DATE  = 
ORIGINATOR     = 

OBJECT_NAME    = STARLINK-35453
OBJECT_ID      = 2025-223AA
CENTER_NAME    = EARTH
REF_FRAME      = TEME
TIME_SYSTEM    = UTC
MEAN_ELEMENT_THEORY = SGP/SGP4

EPOCH          = 2025-10-29T18:53:39.288192
MEAN_MOTION    = 15.49272334
ECCENTRICITY   = .00014284
INCLINATION    = 53.1598
RA_OF_ASC_NODE = 184.3414
ARG_OF_PERICENTER = 93.2908
MEAN_ANOMALY   = 266.8265

EPHEMERIS_TYPE = 0
CLASSIFICATION_TYPE = U
NORAD_CAT_ID   = 65878
ELEMENT_SET_NO = 999
REV_AT_EPOCH   = 413
BSTAR          = -.39617125E-3
MEAN_MOTION_DOT = -.2239E-3
MEAN_MOTION_DDOT = 0

CCSDS_OMM_VERS = 2.0
CREATION_DATE  = 
ORIGINATOR     = 

OBJECT_NAME    = STARLINK-35418
OBJECT_ID      = 2025-223AB
CENTER_NAME    = EARTH
REF_FRAME      = TEME
TIME_SYSTEM    = UTC
MEAN_ELEMENT_THEORY = SGP/SGP4

EPOCH          = 2025-10-29T21:57:56.385216
MEAN_MOTION    = 15.49349180
ECCENTRICITY   = .00012176
INCLINATION    = 53.1599
RA_OF_ASC_NODE = 183.7188
ARG_OF_PERICENTER = 96.4769
MEAN_ANOMALY   = 263.6379

EPHEMERIS_TYPE = 0
CLASSIFICATION_TYPE = U
NORAD_CAT_ID   = 65879
ELEMENT_SET_NO = 999
REV_AT_EPOCH   = 415
BSTAR          = .17957929E-2
MEAN_MOTION_DOT = .100868E-2
MEAN_MOTION_DDOT = 0

CCSDS_OMM_VERS = 2.0
CREATION_DATE  = 
ORIGINATOR     = 

OBJECT_NAME    = STARLINK-35445
OBJECT_ID      = 2025-223AC
CENTER_NAME    = EARTH
REF_FRAME      = TEME
TIME_SYSTEM    = UTC
MEAN_ELEMENT_THEORY = SGP/SGP4

EPOCH          = 2025-10-29T21:58:55.847424
MEAN_MOTION    = 15.49335411
ECCENTRICITY   = .00008421
INCLINATION    = 53.1597
RA_OF_ASC_NODE = 183.7220
ARG_OF_PERICENTER = 109.8238
MEAN_ANOMALY   = 250.2862

EPHEMERIS_TYPE = 0
CLASSIFICATION_TYPE = U
NORAD_CAT_ID   = 65880
ELEMENT_SET_NO = 999
REV_AT_EPOCH   = 415
BSTAR          = .18758686E-2
MEAN_MOTION_DOT = .105396E-2
MEAN_MOTION_DDOT = 0

CCSDS_OMM_VERS = 2.0
CREATION_DATE  = 
ORIGINATOR     = 

OBJECT_NAME    = STARLINK-35464
OBJECT_ID      = 2025-223AD
CENTER_NAME    = EARTH
REF_FRAME      = TEME
TIME_SYSTEM    = UTC
MEAN_ELEMENT_THEORY = SGP/SGP4

EPOCH          = 2025-10-29T21:57:26.940960
MEAN_MOTION    = 15.49332571
ECCENTRICITY   = .00009434
INCLINATION    = 53.1601
RA_OF_ASC_NODE = 183.7150
ARG_OF_PERICENTER = 94.9259
MEAN_ANOMALY   = 265.1858

EPHEMERIS_TYPE = 0
CLASSIFICATION_TYPE = U
NORAD_CAT_ID   = 65881
ELEMENT_SET_NO = 999
REV_AT_EPOCH   = 415
BSTAR          = .19111321E-2
MEAN_MOTION_DOT = .107403E-2
MEAN_MOTION_DDOT = 0

CCSDS_OMM_VERS = 2.0
CREATION_DATE  = 
ORIGINATOR     = 

OBJECT_NAME    = STARLINK-35270
OBJECT_ID      = 2025-224A
CENTER_NAME    = EARTH
REF_FRAME      = TEME
TIME_SYSTEM    = UTC
MEAN_ELEMENT_THEORY = SGP/SGP4

EPOCH          = 2025-10-29T22:00:01.999584
MEAN_MOTION    = 15.49576490
ECCENTRICITY   = .00015576
INCLINATION    = 53.1594
RA_OF_ASC_NODE = 261.0184
ARG_OF_PERICENTER = 102.4340
MEAN_ANOMALY   = 158.2792

EPHEMERIS_TYPE = 0
CLASSIFICATION_TYPE = U
NORAD_CAT_ID   = 65882
ELEMENT_SET_NO = 999
REV_AT_EPOCH   = 481
BSTAR          = -.848769E-2
MEAN_MOTION_DOT = -.45056E-2
MEAN_MOTION_DDOT = 0

CCSDS_OMM_VERS = 2.0
CREATION_DATE  = 
ORIGINATOR     = 

OBJECT_NAME    = STARLINK-35367
OBJECT_ID      = 2025-224B
CENTER_NAME    = EARTH
REF_FRAME      = TEME
TIME_SYSTEM    = UTC
MEAN_ELEMENT_THEORY = SGP/SGP4

EPOCH          = 2025-10-29T22:00:01.999584
MEAN_MOTION    = 15.49583678
ECCENTRICITY   = .00016629
INCLINATION    = 53.1593
RA_OF_ASC_NODE = 261.0108
ARG_OF_PERICENTER = 101.7607
MEAN_ANOMALY   = 162.7861

EPHEMERIS_TYPE = 0
CLASSIFICATION_TYPE = U
NORAD_CAT_ID   = 65883
ELEMENT_SET_NO = 999
REV_AT_EPOCH   = 481
BSTAR          = -.86815396E-2
MEAN_MOTION_DOT = -.460396E-2
MEAN_MOTION_DDOT = 0

CCSDS_OMM_VERS = 2.0
CREATION_DATE  = 
ORIGINATOR     = 

OBJECT_NAME    = STARLINK-35384
OBJECT_ID      = 2025-224C
CENTER_NAME    = EARTH
REF_FRAME      = TEME
TIME_SYSTEM    = UTC
MEAN_ELEMENT_THEORY = SGP/SGP4

EPOCH          = 2025-10-29T22:00:01.999584
MEAN_MOTION    = 15.49542788
ECCENTRICITY   = .00016449
INCLINATION    = 53.1592
RA_OF_ASC_NODE = 261.0015
ARG_OF_PERICENTER = 104.3168
MEAN_ANOMALY   = 164.0815

EPHEMERIS_TYPE = 0
CLASSIFICATION_TYPE = U
NORAD_CAT_ID   = 65884
ELEMENT_SET_NO = 999
REV_AT_EPOCH   = 481
BSTAR          = -.7209715E-2
MEAN_MOTION_DOT = -.385484E-2
MEAN_MOTION_DDOT = 0

CCSDS_OMM_VERS = 2.0
CREATION_DATE  = 
ORIGINATOR     = 

OBJECT_NAME    = STARLINK-35415
OBJECT_ID      = 2025-224D
CENTER_NAME    = EARTH
REF_FRAME      = TEME
TIME_SYSTEM    = UTC
MEAN_ELEMENT_THEORY = SGP/SGP4

EPOCH          = 2025-10-29T22:00:01.999584
MEAN_MOTION    = 15.49582782
ECCENTRICITY   = .00017174
INCLINATION    = 53.1591
RA_OF_ASC_NODE = 260.9938
ARG_OF_PERICENTER = 98.4183
MEAN_ANOMALY   = 173.7945

EPHEMERIS_TYPE = 0
CLASSIFICATION_TYPE = U
NORAD_CAT_ID   = 65885
ELEMENT_SET_NO = 999
REV_AT_EPOCH   = 476
BSTAR          = -.86631802E-2
MEAN_MOTION_DOT = -.459468E-2
MEAN_MOTION_DDOT = 0

CCSDS_OMM_VERS = 2.0
CREATION_DATE  = 
ORIGINATOR     = 

OBJECT_NAME    = STARLINK-35413
OBJECT_ID      = 2025-224E
CENTER_NAME    = EARTH
REF_FRAME      = TEME
TIME_SYSTEM    = UTC
MEAN_ELEMENT_THEORY = SGP/SGP4

EPOCH          = 2025-10-29T22:00:01.999584
MEAN_MOTION    = 15.49557345
ECCENTRICITY   = .00020749
INCLINATION    = 53.1592
RA_OF_ASC_NODE = 260.9855
ARG_OF_PERICENTER = 89.8441
MEAN_ANOMALY   = 186.2111

EPHEMERIS_TYPE = 0
CLASSIFICATION_TYPE = U
NORAD_CAT_ID   = 65886
ELEMENT_SET_NO = 999
REV_AT_EPOCH   = 476
BSTAR          = -.9448787E-2
MEAN_MOTION_DOT = -.49824E-2
MEAN_MOTION_DDOT = 0

CCSDS_OMM_VERS = 2.0
CREATION_DATE  = 
ORIGINATOR     = 

OBJECT_NAME    = STARLINK-35332
OBJECT_ID      = 2025-224F
CENTER_NAME    = EARTH
REF_FRAME      = TEME
TIME_SYSTEM    = UTC
MEAN_ELEMENT_THEORY = SGP/SGP4

EPOCH          = 2025-10-29T22:00:01.999584
MEAN_MOTION    = 15.49560441
ECCENTRICITY   = .00022093
INCLINATION    = 53.1593
RA_OF_ASC_NODE = 260.9815
ARG_OF_PERICENTER = 90.5395
MEAN_ANOMALY   = 187.4327

EPHEMERIS_TYPE = 0
CLASSIFICATION_TYPE = U
NORAD_CAT_ID   = 65887
ELEMENT_SET_NO = 999
REV_AT_EPOCH   = 484
BSTAR          = -.9520012E-2
MEAN_MOTION_DOT = -.501836E-2
MEAN_MOTION_DDOT = 0

CCSDS_OMM_VERS = 2.0
CREATION_DATE  = 
ORIGINATOR     = 

OBJECT_NAME    = STARLINK-35362
OBJECT_ID      = 2025-224G
CENTER_NAME    = EARTH
REF_FRAME      = TEME
TIME_SYSTEM    = UTC
MEAN_ELEMENT_THEORY = SGP/SGP4

EPOCH          = 2025-10-29T22:00:01.999584
MEAN_MOTION    = 15.49574612
ECCENTRICITY   = .00016204
INCLINATION    = 53.1594
RA_OF_ASC_NODE = 261.0136
ARG_OF_PERICENTER = 103.6136
MEAN_ANOMALY   = 159.0165

EPHEMERIS_TYPE = 0
CLASSIFICATION_TYPE = U
NORAD_CAT_ID   = 65888
ELEMENT_SET_NO = 999
REV_AT_EPOCH   = 481
BSTAR          = -.84103976E-2
MEAN_MOTION_DOT = -.446656E-2
MEAN_MOTION_DDOT = 0

CCSDS_OMM_VERS = 2.0
CREATION_DATE  = 
ORIGINATOR     = 

OBJECT_NAME    = STARLINK-35193
OBJECT_ID      = 2025-224H
CENTER_NAME    = EARTH
REF_FRAME      = TEME
TIME_SYSTEM    = UTC
MEAN_ELEMENT_THEORY = SGP/SGP4

EPOCH          = 2025-10-29T22:00:01.999584
MEAN_MOTION    = 15.49534785
ECCENTRICITY   = .00020899
INCLINATION    = 53.1592
RA_OF_ASC_NODE = 260.7443
ARG_OF_PERICENTER = 126.2424
MEAN_ANOMALY   = 265.9966

EPHEMERIS_TYPE = 0
CLASSIFICATION_TYPE = U
NORAD_CAT_ID   = 65889
ELEMENT_SET_NO = 999
REV_AT_EPOCH   = 484
BSTAR          = -.90619011E-2
MEAN_MOTION_DOT = -.478657E-2
MEAN_MOTION_DDOT = 0

